OBJECT_NAME,OBJECT_ID,EPOCH,MEAN_MOTION,ECCENTRICITY,INCLINATION,RA_OF_ASC_NODE,ARG_OF_PERICENTER,MEAN_ANOMALY,EPHEMERIS_TYPE,CLASSIFICATION_TYPE,NORAD_CAT_ID,ELEMENT_SET_NO,REV_AT_EPOCH,BSTAR,MEAN_MOTION_DOT,MEAN_MOTION_DDOT
ONEWEB-0546,2023-043C,2026-07-17T01:01:03.976032,13.16593866,.0002257,87.9078,222.8439,75.9471,284.1910,0,U,56048,999,16289,.45558E-4,.3E-6,0
ONEWEB-0547,2023-043D,2026-07-17T01:44:23.951616,13.21827306,.0002242,87.9236,238.0273,98.6698,261.4690,0,U,56049,999,16217,.1018E-3,.55E-6,0
ONEWEB-0548,2023-043E,2026-07-16T14:39:46.507680,13.16595272,.0001583,87.9078,222.9250,93.4578,266.6734,0,U,56050,999,16283,.16003E-3,.74E-6,0
ONEWEB-0549,2023-043F,2026-07-17T01:35:55.674240,13.21827529,.0002485,87.9229,238.0334,96.0827,264.0590,0,U,56051,999,16217,.16112E-3,.8E-6,0
ONEWEB-0550,2023-043G,2026-07-17T01:16:33.893184,13.21827235,.0001891,87.9232,238.0343,98.4770,261.6578,0,U,56052,999,16217,.23085E-3,.108E-5,0
ONEWEB-0551,2023-043H,2026-07-17T02:55:25.940064,13.15547483,.0002425,87.8977,253.2619,101.3920,258.7483,0,U,56053,999,16033,.97442E-4,.5E-6,0
ONEWEB-0552,2023-043J,2026-07-17T01:09:16.829280,13.21826633,.0002117,87.9230,238.0398,101.9982,258.1389,0,U,56054,999,16217,.11416E-3,.6E-6,0
ONEWEB-0553,2023-043K,2026-07-17T01:10:11.104896,13.16593846,.0002022,87.9075,222.8427,83.2615,276.8746,0,U,56055,999,16290,.19517E-3,.87E-6,0
ONEWEB-0554,2023-043L,2026-07-17T00:51:56.932704,13.16593846,.0001524,87.9073,222.8539,94.8511,265.2794,0,U,56056,999,16288,-.14639E-4,.7E-7,0
ONEWEB-0555,2023-043M,2026-07-17T01:46:39.427680,13.16594390,.0002148,87.9080,222.8349,78.8174,281.3199,0,U,56057,999,16289,.6564E-4,.38E-6,0
ONEWEB-0557,2023-043N,2026-07-17T00:17:44.454048,13.16594237,.0001209,87.9078,222.8571,58.0189,302.1059,0,U,56058,999,16288,-.63086E-4,-.11E-6,0
ONEWEB-0558,2023-043P,2026-07-17T02:48:36.278784,13.21826215,.0002423,87.9235,238.0218,94.9702,265.1708,0,U,56059,999,16219,.95523E-4,.52E-6,0
ONEWEB-0559,2023-043Q,2026-07-16T15:37:38.044992,13.21824400,.0002236,87.9235,238.1100,100.0722,260.0664,0,U,56060,999,16214,-.90125E-4,-.24E-6,0
ONEWEB-0566,2023-043R,2026-07-17T02:21:57.851136,13.21824185,.0002346,87.9234,238.0189,102.6877,257.4519,0,U,56061,999,16218,.21869E-4,.22E-6,0
ONEWEB-0568,2023-043S,2026-07-17T00:42:49.026240,13.16595603,.0002103,87.9077,222.8430,85.3403,274.7969,0,U,56062,999,16290,-.88185E-4,-.21E-6,0
ONEWEB-0574,2023-043T,2026-07-17T02:12:17.439264,13.21825977,.0001884,87.9240,238.0251,94.2196,265.9153,0,U,56063,999,16222,.26667E-4,.24E-6,0
ONEWEB-0575,2023-043U,2026-07-17T00:33:41.448096,13.16595414,.0001731,87.9076,222.8405,84.3978,275.7350,0,U,56064,999,16289,-.11484E-3,-.31E-6,0
ONEWEB-0576,2023-043V,2026-07-17T01:55:45.509376,13.16596127,.0001891,87.9083,222.8379,89.8182,270.3165,0,U,56065,999,16289,.28907E-4,.24E-6,0
ONEWEB-0577,2023-043W,2026-07-17T00:15:27.280224,13.16596072,.0001324,87.9081,222.8494,84.1872,275.9410,0,U,56066,999,16291,.21224E-5,.14E-6,0
ONEWEB-0578,2023-043X,2026-07-17T01:52:54.598080,13.21826526,.0002113,87.9237,238.0244,87.5726,272.5650,0,U,56067,999,16218,.21152E-3,.1E-5,0
ONEWEB-0579,2023-043Y,2026-07-17T01:40:45.859872,13.21825045,.0002063,87.9240,238.0246,102.7244,257.4121,0,U,56068,999,16219,-.46331E-3,-.178E-5,0
ONEWEB-0581,2023-043Z,2026-07-17T00:24:34.337376,13.16595545,.0001497,87.9070,222.8585,91.3997,268.7305,0,U,56069,999,16288,-.58979E-4,-.1E-6,0
ONEWEB-0609,2023-043AA,2026-07-17T03:33:04.804128,13.15547429,.0002137,87.8981,253.2412,97.0295,263.1078,0,U,56070,999,16037,.51013E-3,.205E-5,0
ONEWEB-0613,2023-043AB,2026-07-16T16:32:31.414272,13.15548480,.0002215,87.8982,253.3452,103.9634,256.1743,0,U,56071,999,16031,.26816E-3,.114E-5,0
ONEWEB-0630,2023-043AC,2026-07-17T03:22:48.220896,13.15549547,.0002177,87.8987,253.2287,103.4306,256.7067,0,U,56072,999,16036,.50633E-3,.203E-5,0
ONEWEB-0632,2023-043AD,2026-07-17T03:15:58.459392,13.15549176,.0001922,87.8989,253.2455,96.9867,263.1482,0,U,56073,999,16036,.68708E-3,.271E-5,0
ONEWEB-0633,2023-043AE,2026-07-17T03:06:50.567616,13.15554674,.0002457,87.8991,253.2251,100.0293,260.1115,0,U,56074,999,16034,-.30625E-2,-.114E-4,0
ONEWEB-0634,2023-043AF,2026-07-17T02:46:18.658272,13.15548025,.0002259,87.8982,253.2660,89.8950,270.2439,0,U,56075,999,16033,-.19491E-3,-.61E-6,0
ONEWEB-0635,2023-043AG,2026-07-17T02:39:27.696672,13.15547961,.000177,87.8992,253.2324,96.6864,263.4467,0,U,56076,999,16036,-.2486E-3,-.81E-6,0
ONEWEB-0636,2023-043AH,2026-07-17T02:28:02.739936,13.15548161,.0001879,87.8989,253.2394,97.1369,262.9975,0,U,56077,999,16034,-.15572E-3,-.46E-6,0
ONEWEB-0637,2023-043AJ,2026-07-16T15:21:47.219904,13.15548717,.0001943,87.8981,253.3457,88.9819,271.1534,0,U,56078,999,16030,-.29945E-3,-.1E-5,0
